name,Phone,Business.Description,address,website,latitude,longitude
Abbotts Frozen Custard,(336) 448-5984,Ice Cream Parlors,6312 Clemmons Point Dr Clemmons NC 27012,https://www.abbottscustard.com,36.03730091,-80.38734034
Abbotts Frozen Custard,704-949-0117,Ice Cream Parlors,"10070 Edison Square Drive NW, Concord, NC 28027",https://www.abbottscustard.com,35.401178,-80.75947
Abbotts Frozen Custard,803-548-2858,Ice Cream Parlors,"1157 Stonecrest Blvd Tega Cay,  SC 29708",https://www.abbottscustard.com,35.048075,-80.994502
Andia's Homemade Ice Cream,(919) 822-1866,Ice Cream Parlors,10120 Green Level Church Rd Cary NC 27519,https://www.andiasicecream.com,35.7862909,-78.9036016
Andia's Homemade Ice Cream,(919) 234-0037,Ice Cream Parlors,1008 Ryan Rd Cary NC 27511,https://www.andiasicecream.com,35.7772908,-78.7678612
Andias Homemade Ice Cream,(919) 601-8560,Ice Cream Parlors,10207 Chapel Hill Rd # C Morrisville NC 27560,https://www.andiasicecream.com,35.82714376,-78.82669279
Andy's Frozen Custard,(980) 262-3004,Ice Cream Parlors,2210 Matthews Township Pkwy Matthews NC 28105,https://www.eatandys.com,35.12716061,-80.70314112
Andy's Frozen Custard,(919) 867-5212,Ice Cream Parlors,3002 Leland Dr Raleigh NC 27616,https://www.eatandys.com,35.8937438,-78.51179352
Andy's Frozen Custard,(336) 639-7024,Ice Cream Parlors,408 Huffman Mill Rd Burlington NC 27215,https://www.eatandys.com,36.0755938,-79.4888297
Andy's Frozen Custard,(704) 849-0073,Ice Cream Parlors,9921 Rea Rd Waxhaw NC 28173,https://www.eatandys.com,35.01651081,-80.80328445
Andy's Frozen Custard,(704) 549-9687,Ice Cream Parlors,8835 Christenbury Pkwy Concord NC 28027,https://www.eatandys.com,35.3751348,-80.73152366
Andy's Frozen Custard,(336) 803-4148,Ice Cream Parlors,2406 Penny Rd High Point NC 27265,https://www.eatandys.com,36.03570339,-79.9663561
Andy's Frozen Custard,(704) 997-8165,Ice Cream Parlors,17055 Nat Bynum Ln Cornelius NC 28031,https://www.eatandys.com,35.482588,35.482588
Andy's Frozen Custard,(919) 650-2865,Ice Cream Parlors,1115 Hatches Pond Ln Morrisville NC 27560,https://www.eatandys.com,35.8261286,-78.8491879
Artesana Ice Cream,(828) 559-2023,Ice Cream Parlors,76 S Main St Marion NC 28752,https://www.artesanaicecream.com,35.68318294,-82.00862116
Artisen Gelato LLC,(704) 000-1111,Ice Cream Parlors,110 S Ames St Matthews NC 28105,https://www.artisengelato.com,35.11741183,-80.72515838
Bada Bing Original Italian Ice,(336) 413-5882,Ice Cream Parlors,484 New River Inlet Rd N Topsail Beach NC 28460,www.badabingitalianice.com,34.49653528,-77.41174812
Baskin-Robbins,(910) 900-5486,Ice Cream Parlors,9566 Cliffdale Rd Fayetteville NC 28304,https://www.baskinrobbins.com,35.02988745,-79.06217584
Baskin-Robbins,(910) 252-9476,Ice Cream Parlors,3411 Ramsey St Fayetteville NC 28311,https://www.baskinrobbins.com,35.10554231,-78.878587
Baskin-Robbins,(910) 864-3131,Ice Cream Parlors,1850 Skibo Rd Fayetteville NC 28303,https://www.baskinrobbins.com,35.0720374,-78.96523211
Baskin-Robbins,(984) 344-4276,Ice Cream Parlors,7137 Knightdale Blvd Knightdale NC 27545,https://www.baskinrobbins.com,35.79839711,-78.48924882
Baskin-Robbins,(984) 344-4317,Ice Cream Parlors,5265 Six Forks Rd Raleigh NC 27609,https://www.baskinrobbins.com,35.85304978,-78.64270867
Baskin-Robbins,(919) 303-4334,Ice Cream Parlors,2740 Nc 55 Hwy # 100 Cary NC 27519,https://www.baskinrobbins.com,35.7844645,-78.87120127
Baskin-Robbins,(910) 939-5257,Ice Cream Parlors,433A Western Blvd Jacksonville NC 28546,https://www.baskinrobbins.com,34.76846952,-77.38525012
Baskin-Robbins,(910) 984-2026,Ice Cream Parlors,1490 Nc 24-87 # 1 Cameron NC 28326,https://www.baskinrobbins.com,35.25710087,-79.03865189
Baskin-Robbins,(704) 986-4608,Ice Cream Parlors,716 Nc 24 27 Byp E Albemarle NC 28001,https://www.baskinrobbins.com,35.33859725,-80.20455582
Baskin-Robbins,(919) 521-4960,Ice Cream Parlors,8401 Capital Blvd Raleigh NC 27616,https://www.baskinrobbins.com,35.89327351,-78.55961891
Baskin-Robbins,(704) 583-0411,Ice Cream Parlors,9033 S Tryon St Charlotte NC 28273,https://www.baskinrobbins.com,35.13521643,-80.93867636
Baskin-Robbins,(252) 247-4888,Ice Cream Parlors,2908 Arendell St Morehead City NC 28557,https://www.baskinrobbins.com,34.72383645,-76.74265234
Baskin-Robbins,(704) 394-2828,Ice Cream Parlors,5029 Beatties Ford Rd Charlotte NC 28216,https://www.baskinrobbins.com,35.3039689,-80.85756815
Baskin-Robbins,(984) 344-4330,Ice Cream Parlors,3570 Davis Dr Morrisville NC 27560,https://www.baskinrobbins.com,35.81864648,-78.84763088
Baskin-Robbins,(704) 869-4522,Ice Cream Parlors,2302 S New Hope Rd Gastonia NC 28054,https://www.baskinrobbins.com,35.24235139,-81.12709351
Baskin-Robbins,(704) 331-2940,Ice Cream Parlors,701 S Kings Dr Charlotte NC 28204,https://www.baskinrobbins.com,35.20897842,-80.83586551
Baskin-Robbins,(704) 542-2998,Ice Cream Parlors,16131 Lancaster Hwy Charlotte NC 28277,https://www.baskinrobbins.com,35.03618993,-80.85742284
Baskin-Robbins,(919) 309-0000,Ice Cream Parlors,2608 Erwin Rd # 156 Durham NC 27705,https://www.baskinrobbins.com,36.00873728,-78.9443576
Baskin-Robbins,(252) 321-7407,Ice Cream Parlors,1885 E Fire Tower Rd # 100 Greenville NC 27858,https://www.baskinrobbins.com,35.56583214,-77.35630889
Baskin-Robbins,(336) 422-7247,Ice Cream Parlors,7815 N Point Blvd Winston Salem NC 27106,https://www.baskinrobbins.com,36.15078514,-80.27797931
Baskin-Robbins,(919) 577-1150,Ice Cream Parlors,1450 N Main St Fuquay Varina NC 27526,https://www.baskinrobbins.com,35.59328963,-78.77099828
Baskin-Robbins,(336) 784-0266,Ice Cream Parlors,2561 Peters Creek Pkwy Winston Salem NC 27127,https://www.baskinrobbins.com,36.06242352,-80.2584411
Baskin-Robbins,(910) 791-7192,Ice Cream Parlors,3809 Oleander Dr Wilmington NC 28403,https://www.baskinrobbins.com,34.21475917,-77.90120743
Baskin-Robbins,(919) 875-9092,Ice Cream Parlors,2727 Capital Blvd Raleigh NC 27604,https://www.baskinrobbins.com,35.81637287,-78.60174495
Baskin-Robbins,(910) 451-2599,Ice Cream Parlors,1238 Birch St Camp Lejeune NC 28547,https://www.baskinrobbins.com,34.6735475,-77.3376051
Baskin-Robbins,(704) 542-4667,Ice Cream Parlors,8334 Matthews-Pineville Rd # 101 Charlotte NC 28226,https://www.baskinrobbins.com,35.0879913,-80.8607317
Baskin-Robbins,(704) 882-3858,Ice Cream Parlors,14055 E Independence Blvd Indian Trail NC 28079,https://www.baskinrobbins.com,35.0774292,-80.65285
Beachbunnyicecream,(910) 262-2335,Ice Cream Parlors,227 Bagley Ave Wilmington NC 28409,https://www.beachbunnyicecream.com,34.20840075,-77.83991115
Ben & Jerry's,(704) 333-1003,Ice Cream Parlors,507 Providence Rd # 100 Charlotte NC 28207,www.benjerry.com,35.20342874,-80.82458039
Ben & Jerry's,(919) 967-9068,Ice Cream Parlors,102 W Franklin St Chapel Hill NC 27516,www.benjerry.com,35.91313493,-79.05598307
Ben & Jerry's,(828) 865-1222,Ice Cream Parlors,671 W King St Boone NC 28607,www.benjerry.com,36.21885664,-81.68430332
Ben & Jerry's,(828) 424-7153,Ice Cream Parlors,19 Haywood St Asheville NC 28801,www.benjerry.com,35.59524989,-82.55433294
Ben & Jerry's,(336) 856-2178,Ice Cream Parlors,3332 W Friendly Ave Greensboro NC 27410,www.benjerry.com,36.08496505,-79.8363008
Ben & Jerry's,(704) 364-7600,Ice Cream Parlors,7800 Fairview Rd Charlotte NC 28226,www.benjerry.com,35.14750433,-80.80977518
Ben & Jerry's,(252) 354-8448,Ice Cream Parlors,8204 Emerald Dr # 2 Emerald Isle NC 28594,www.benjerry.com,34.66486605,-77.03506072
Ben & Jerry's,(919) 807-0707,Ice Cream Parlors,3801 Hillsborough St # 141 Raleigh NC 27607,www.benjerry.com,35.79413691,-78.68784625
Ben & Jerry's,(704) 892-0604,Ice Cream Parlors,202 S Main St Davidson NC 28036,www.benjerry.com,35.4979349,-80.84919401
Ben & Jerry's,(919) 781-4677,Ice Cream Parlors,4160 Main Street Raleigh NC 27609,www.benjerry.com,35.8369683,-78.6427485
Big Bucks Homemade Ice Cream,(252) 423-3118,Ice Cream Parlors,207 Queen Elizabeth Ave Manteo NC 27954,https://www.bigbucksicecream.com,35.90908249,-75.66908816
Big Bucks Ice Cream,(252) 453-3188,Ice Cream Parlors,207 Queen Elizabeth Ave Manteo NC 27954,https://www.bigbucksicecream.com,35.90908249,-75.66908816
Blue Deer On King,(828) 832-8010,Ice Cream Parlors,352 W King St Boone NC 28607,https://www.bluedeercookies.com,36.21686324,-81.67914525
Blvd Ice Cream,(252) 429-7515,Ice Cream Parlors,1 Ocean Blvd # 107 Southern Shores NC 27949,https://www.blvdicecream.com,36.10315169,-75.71359591
Bold Batch Creamery,(828) 000-1111,Ice Cream Parlors,2161 S Wilmington St Raleigh NC 27603,https://www.boldbatchcreamery.com,35.75240829,-78.64199506
Brain Freeze Fun,(828) 200-1996,Ice Cream Parlors,320 Siler Rd Franklin NC 28734,https://www.brainfreezefun.com,35.1649272,-83.3854484
Brewers Italian Ice LLC,(919) 000-1111,Ice Cream Parlors,3201 Edwards Mill Rd # 141-433 Raleigh NC 27612,https://www.brewersitalianice.com,35.82499253,-78.70596985
Brick City Boba,(919) 292-1748,Ice Cream Parlors,104 E Main St Sanford NC 27332,https://www.brickcityboba.com,35.45755814,-79.15042316
Bruster's Real Ice Cream,(704) 708-6763,Ice Cream Parlors,545 W John St Matthews NC 28105,https://www.brusters.com,35.11998101,-80.72780313
Bruster's Real Ice Cream,(919) 844-1120,Ice Cream Parlors,10450 Durant Rd # 100 Raleigh NC 27614,https://www.brusters.com,35.90448381,-78.58766091
Bruster's Real Ice Cream,(704) 218-2111,Ice Cream Parlors,2166 Commerce Dr Monroe NC 28110,https://www.brusters.com,35.00427897,-80.56255541
Bruster's Real Ice Cream,(704) 799-9898,Ice Cream Parlors,252 Williamson Rd Mooresville NC 28117,https://www.brusters.com,35.58482352,-80.87392941
Bruster's Real Ice Cream,(704) 234-8399,Ice Cream Parlors,531 Indian Trail Rd S Indian Trail NC 28079,https://www.brusters.com,35.06969183,-80.67677577
Bruster's Real Ice Cream,(704) 896-2886,Ice Cream Parlors,17029 Kenton Dr Cornelius NC 28031,https://www.brusters.com,35.4477649,-80.89116716
Bruster's Real Ice Cream,(919) 234-0026,Ice Cream Parlors,952 US 64 Hwy W # 12 Apex NC 27523,https://www.brusters.com,35.74442838,-78.82439807
Bruster's Real Ice Cream,(919) 237-3537,Ice Cream Parlors,8200 Renaissance Pkwy # 1002 Durham NC 27713,https://www.brusters.com,35.90105947,-78.95887846
Bruster's Real Ice Cream,(910) 794-1222,Ice Cream Parlors,4414 S 17th St Wilmington NC 28412,https://www.brusters.com,34.175266,-77.893314
Cafe49 Halal Pizzeria,(704) 499-4525,Ice Cream Parlors,10221 University City Blvd Charlotte NC 28213,https://www.cafe49.us,35.31057513,-80.71467988
Carolina Scoops Ice Cream,(704) 889-0346,Ice Cream Parlors,105 Dover St Pineville NC 28134,https://www.carolinascoops.com,35.08571289,-80.89122272
Cj's Italian Ice & Cream,(704) 699-5825,Ice Cream Parlors,221 Kluttz Ct SW Concord NC 28025,https://www.cjscream.com,35.40135442,-80.58380901
Cold Stone Creamery,(919) 650-1737,Ice Cream Parlors,258 Grande Heights Dr Cary NC 27513,https://www.coldstonecreamery.com,35.80459179,-78.78042145
Cold Stone Creamery,(919) 500-3972,Ice Cream Parlors,1040 Forestville Rd # 156-A10 Wake Forest NC 27587,https://www.coldstonecreamery.com,35.94417472,-78.50704035
Cold Stone Creamery,(910) 674-4041,Ice Cream Parlors,140 Wintergreen Dr Lumberton NC 28358,https://www.coldstonecreamery.com,34.66894683,-79.0026899
Cold Stone Creamery,(919) 858-7754,Ice Cream Parlors,325 Crossroads Blvd Cary NC 27518,https://www.coldstonecreamery.com,35.75904956,-78.73407997
Cold Stone Creamery,(704) 341-0100,Ice Cream Parlors,9820 Rea Rd # B Charlotte NC 28277,https://www.coldstonecreamery.com,35.0345535,-80.80503472
Cold Stone Creamery,(336) 292-0321,Ice Cream Parlors,1626 Highwoods Blvd Greensboro NC 27410,https://www.coldstonecreamery.com,36.11326359,-79.87844247
Cold Stone Creamery,(919) 629-4031,Ice Cream Parlors,2050 Creekside Landing Dr Apex NC 27502,https://www.coldstonecreamery.com,35.74520254,-78.88461496
Cold Stone Creamery,(704) 583-3828,Ice Cream Parlors,14126 Rivergate Pkwy # 100 Charlotte NC 28273,https://www.coldstonecreamery.com,35.10369745,-80.985203
Cold Stone Creamery,(704) 636-0800,Ice Cream Parlors,343 Faith Rd # 12 Salisbury NC 28146,https://www.coldstonecreamery.com,35.65378489,-80.45825295
Cold Stone Creamery,(910) 920-1040,Ice Cream Parlors,3571 Butner Rd # 8-5476-C Fort Liberty NC 28307,https://www.coldstonecreamery.com,35.87197097,-79.55771808
Cold Stone Creamery,(704) 979-5061,Ice Cream Parlors,8111 Concord Mls Blvd # 743 Concord NC 28027,https://www.coldstonecreamery.com,35.37079546,-80.71721201
Cold Stone Creamery,(336) 882-2653,Ice Cream Parlors,3875 John Gordon Ln # 102 High Point NC 27265,https://www.coldstonecreamery.com,36.03543934,-79.96240141
Cold Stone Creamery,(919) 914-6193,Ice Cream Parlors,131 E Franklin St Chapel Hill NC 27514,https://www.coldstonecreamery.com,35.9136048,-79.0547542
Cold Stone Creamery,(252) 439-2653,Ice Cream Parlors,518 Greenville Blvd SE # G Greenville NC 27858,https://www.coldstonecreamery.com,35.58251216,-77.37438169
Cold Stone Creamery,(704) 799-6022,Ice Cream Parlors,688 Bluefield Rd # E Mooresville NC 28117,https://www.coldstonecreamery.com,35.59525025,-80.86875371
Cold Stone Creamery,(910) 256-5226,Ice Cream Parlors,951 International Dr Wilmington NC 28405,https://www.coldstonecreamery.com,34.24312767,-77.82858323
Cold Stone Creamery,(910) 989-2653,Ice Cream Parlors,Western Blvd 1250 # L3 Jacksonville NC 28546,https://www.coldstonecreamery.com,34.78213399,-77.39721099
Cold Stone Creamery,(919) 251-8087,Ice Cream Parlors,6911 Fayetteville Rd # 101 Durham NC 27713,https://www.coldstonecreamery.com,35.90359006,-78.93858863
Cold Stone Creamery,(336) 904-0088,Ice Cream Parlors,960 S Main St # E Kernersville NC 27284,https://www.coldstonecreamery.com,36.10889419,-80.09534092
Cold Stone Creamery,(910) 868-4323,Ice Cream Parlors,5075 Morganton Rd # 7 Fayetteville NC 28314,https://www.coldstonecreamery.com,35.07082532,-78.96529169
Cold Stone Creamery,(919) 239-4075,Ice Cream Parlors,164 Shenstone Blvd Garner NC 27529,https://www.coldstonecreamery.com,35.69089657,-78.58017006
Cold Stone Creamery,(919) 900-7007,Ice Cream Parlors,5811 Poyner Vlg Pkwy # 105 Raleigh NC 27616,https://www.coldstonecreamery.com,35.86341291,-78.57039123
Cold Stone Creamery,(910) 692-9440,Ice Cream Parlors,11088 US 15 501 Hwy Aberdeen NC 28315,https://www.coldstonecreamery.com,35.15530989,-79.41794253
Cold Stone Creamery,(919) 938-1300,Ice Cream Parlors,150 S Equity Dr # A Smithfield NC 27577,https://www.coldstonecreamery.com,35.5075978,-78.32207498
Cold Stone Creamery,(919) 288-1300,Ice Cream Parlors,1209 N Berkeley Blvd # C Goldsboro NC 27534,https://www.coldstonecreamery.com,35.37994816,-77.93380005
Cold Stone Creamery,(336) 218-0060,Ice Cream Parlors,4203 W Wendover Ave # B Greensboro NC 27407,https://www.coldstonecreamery.com,36.05899087,-79.88541897
Cold Stone Creamery,(336) 294-6100,Ice Cream Parlors,3105 Northline Ave Greensboro NC 27408,https://www.coldstonecreamery.com,36.08747675,-79.83066813
Cold Stone Creamery,(980) 207-3565,Ice Cream Parlors,15105 John J Delaney Dr # G Charlotte NC 28277,https://www.coldstonecreamery.com,35.05246555,-80.84813769
Cold Stone Creamery,(919) 694-5461,Ice Cream Parlors,1170 Parkside Main St Cary NC 27519,https://www.coldstonecreamery.com,35.8467795,-78.8878934
Cold Stone Creamery,(336) 524-6102,Ice Cream Parlors,3160 Walden Ln Burlington NC 27215,https://www.coldstonecreamery.com,36.0688508,-79.5088358
Cold Stone Creamery,(828) 650-3013,Ice Cream Parlors,30 Town Square Blvd # 150 Asheville NC 28803,https://www.coldstonecreamery.com,35.4852297,-82.5568625
Cold Stone Creamery,(910) 263-8021,Ice Cream Parlors,3350 Footbridge Lane # 121 Hope Mills NC 28348,https://www.coldstonecreamery.com,34.9805506,-78.9728603
Cold Stone Creamery,(336) 774-8585,Ice Cream Parlors,124 Hanes Mall Cir # 200 Winston Salem NC 27103,https://www.coldstonecreamery.com,36.0693608,-80.2980501
Cold Stone Creamery,(919) 957-2653,Ice Cream Parlors,7840 Alexandr Prmnd Pl # 140 Raleigh NC 27617,https://www.coldstonecreamery.com,35.9136657,-78.7798303
Cold Stone Creamery,(704) 548-9650,Ice Cream Parlors,2700 W Malrd Crk Ch Rd # 210 Charlotte NC 28262,https://www.coldstonecreamery.com,35.3413782,-80.7649874
Dairy Depot,(919) 453-1319,Ice Cream Parlors,3433 Rogers Rd Wake Forest NC 27587,https://www.wfdairydepot.com,35.9503875,-78.51249249
Dairy Queen,(919) 499-9712,Ice Cream Parlors,2531 Nc 87 S Cameron NC 28326,https://www.dairyqueen.com,35.27491007,-79.06844682
Dairy Queen,(910) 754-2999,Ice Cream Parlors,20 Naber Dr Shallotte NC 28470,https://www.dairyqueen.com,33.96044453,-78.41528446
Dairy Queen,(910) 278-5371,Ice Cream Parlors,5701 E Oak Island Dr Oak Island NC 28465,https://www.dairyqueen.com,33.91214899,-78.10684646
Dairy Queen,(919) 777-7255,Ice Cream Parlors,2206 Jefferson Davis Hwy Sanford NC 27330,https://www.dairyqueen.com,35.44107557,-79.21653269
Dairy Queen,(910) 799-2902,Ice Cream Parlors,5901 Oleander Dr Wilmington NC 28403,https://www.dairyqueen.com,34.20949613,-77.84331048
Dairy Queen,(704) 685-9558,Ice Cream Parlors,3128 Union Rd Gastonia NC 28056,https://www.dairyqueen.com,35.21370706,-81.16611587
Dairy Queen,(704) 986-2822,Ice Cream Parlors,1904 US 52 North Albemarle NC 28001,https://www.dairyqueen.com,35.38574106,-80.19323205
Dairy Queen,(252) 234-0336,Ice Cream Parlors,3800 Nash St N Wilson NC 27896,https://www.dairyqueen.com,35.77055307,-77.94074531
Dairy Queen,(980) 335-1164,Ice Cream Parlors,3054 Eastway Dr Charlotte NC 28205,https://www.dairyqueen.com,35.21440638,-80.78089898
Dairy Queen,(704) 781-0468,Ice Cream Parlors,1204 Main St W Locust NC 28097,https://www.dairyqueen.com,35.2543539,-80.44220998
Dairy Queen,(919) 502-7044,Ice Cream Parlors,923 Johnston Pkwy # 4 Kenly NC 27542,https://www.dairyqueen.com,35.58135992,-78.14658182
Dairy Queen,(704) 918-4224,Ice Cream Parlors,1480 Concord Pkwy N # 88 Concord NC 28025,https://www.dairyqueen.com,35.4392124,-80.60594139
Dairy Queen,(910) 828-4101,Ice Cream Parlors,520 E Main St Biscoe NC 27209,https://www.dairyqueen.com,35.36023938,-79.77209562
Dairy Queen,(919) 496-1555,Ice Cream Parlors,317 S Bickett Blvd Louisburg NC 27549,https://www.dairyqueen.com,36.09455839,-78.29751538
Dairy Queen,(919) 554-2564,Ice Cream Parlors,12271 Capital Blvd Wake Forest NC 27587,https://www.dairyqueen.com,35.98327642,-78.53830247
Dairy Queen,(704) 367-9151,Ice Cream Parlors,108 S Sharon Amity Rd # B Charlotte NC 28211,https://www.dairyqueen.com,35.17592483,-80.79846581
Dairy Queen,(828) 304-0621,Ice Cream Parlors,1960 US Hwy 70 SE # 2-114 Hickory NC 28602,https://www.dairyqueen.com,35.72252633,-81.37241943
Dairy Queen,(919) 567-3738,Ice Cream Parlors,1408 N Main St Fuquay Varina NC 27526,https://www.triangledq.com,35.59276517,-78.77289562
Dairy Queen,(336) 851-5345,Ice Cream Parlors,1708 Stanley Rd # E Greensboro NC 27407,https://www.dairyqueen.com,36.05330649,-79.89053281
Dairy Queen,(704) 399-1385,Ice Cream Parlors,2732 Wilkinson Blvd Charlotte NC 28208,https://www.dairyqueen.com,35.22417662,-80.88657148
Dairy Queen,(910) 223-5115,Ice Cream Parlors,6047 Camden Rd Fayetteville NC 28306,https://www.dairyqueen.com,34.97967828,-78.97893678
Dairy Queen,(910) 754-9692,Ice Cream Parlors,106 Southport Supply Rd Supply NC 28462,https://www.dairyqueen.com,34.01433606,-78.26823229
Dairy Queen,(704) 636-8653,Ice Cream Parlors,1004 W Innes St Salisbury NC 28144,https://www.dairyqueen.com,35.67556758,-80.47953583
Dairy Queen,(704) 917-1001,Ice Cream Parlors,904 E Franklin Blvd Gastonia NC 28054,https://www.dairyqueen.com,35.26243099,-81.1681239
Dairy Queen,(252) 726-3039,Ice Cream Parlors,2610 W Fort Macon Rd # B Atlantic Beach NC 28512,https://www.dairyqueen.com,34.69818791,-76.77851119
Dairy Queen,(910) 895-5386,Ice Cream Parlors,110 W Broad Ave Rockingham NC 28379,https://www.dairyqueen.com,34.93750751,-79.77729927
Dairy Queen,(910) 763-1650,Ice Cream Parlors,1517 Dawson St Wilmington NC 28401,https://www.dairyqueen.com,34.225585,-77.928622
Dairy Queen,(828) 648-8517,Ice Cream Parlors,1743 Champion Dr Canton NC 28716,https://www.dairyqueen.com,35.55493651,-82.85122705
Dairy Queen,(910) 674-4557,Ice Cream Parlors,5030 Fayetteville Rd # B Lumberton NC 28358,https://www.dairyqueen.com,34.66453434,-79.00075186
Dairy Queen,(704) 637-6110,Ice Cream Parlors,2143 Statesville Blvd # D Salisbury NC 28147,https://www.dairyqueen.com,35.69492497,-80.51792426
Dairy Queen,(252) 652-6465,Ice Cream Parlors,120 W Main St Havelock NC 28532,https://www.dqcakes.com,34.88325066,-76.91062386
Dairy Queen,(252) 480-2342,Ice Cream Parlors,109 E Ocean Bay Blvd Kill Devil Hills NC 27948,https://www.dairyqueen.com,36.01344437,-75.66053848
Dairy Queen,(828) 327-0236,Ice Cream Parlors,1124 1st Ave SW Hickory NC 28602,https://www.dairyqueen.com,35.73044716,-81.35813617
Dairy Queen,(910) 592-1844,Ice Cream Parlors,1837 Southeast Blvd Clinton NC 28328,https://www.dairyqueen.com,34.98073597,-78.30344113
Dairy Queen,(910) 860-4475,Ice Cream Parlors,430 Westwood Shopping Ctr Fayetteville NC 28314,https://www.dairyqueen.com,35.06691909,-78.95304541
Dairy Queen,(252) 986-5075,Ice Cream Parlors,39774 Hwy 12 Avon NC 27915,https://www.dairyqueen.com,35.36395738,-75.50032277
Dairy Queen,(252) 987-5061,Ice Cream Parlors,25199 Lela Ct Waves NC 27982,https://www.dairyqueen.com,35.5736112,-75.4675945
Dairy Queen,(704) 799-0270,Ice Cream Parlors,223 Medical Park Rd Mooresville NC 28117,https://www.dairyqueen.com,35.5491083,-80.8515536
Dairy Queen,(919) 484-2230,Ice Cream Parlors,Brier Creek Commons # 101 Raleigh NC 27617,https://www.dairyqueen.com,35.906129,-78.7842698
Dairy Queen,(910) 695-1994,Ice Cream Parlors,1035 S Knoll Rd Southern Pines NC 28387,https://www.dairyqueen.com,35.1792458,-79.4277623
Dairy Queen,(910) 223-7447,Ice Cream Parlors,8285 Cliffdale Rd Fayetteville NC 28314,https://www.dairyqueen.com,35.0577753,-79.052252
Dairy Queen,(910) 455-2510,Ice Cream Parlors,200 Wilmington Highway Highway Jacksonville NC 28540,https://www.dairyqueen.com,34.7519974,-77.4514408
Dairy Queen,(704) 547-8886,Ice Cream Parlors,3020 Prsprty Ch Rd # D Charlotte NC 28269,https://www.dairyqueen.com,35.343201,-80.7691925
Dairy Queen,(919) 736-7774,Ice Cream Parlors,Market Place Shopping Center # Goldsboro NC 27534,https://www.dairyqueen.com,35.414221,-77.938621
Dairy Queen,(252) 637-6457,Ice Cream Parlors,2401 Dr M L New Bern NC 28562,https://www.dairyqueen.com,35.1056343,-77.0787627
Dairy Queen,(252) 597-1708,Ice Cream Parlors,Monteray Plaza Shopping Ctr Corolla NC 27927,https://www.dairyqueen.com,36.3287958,-75.8164881
Dairy Queen,(704) 847-8085,Ice Cream Parlors,1819 Matws Twsp Pkwy # 900 Matthews NC 28105,https://www.dairyqueen.com,35.1109105,80.7085066
Day & Night Exotic Cereal Bar,(980) 298-6006,Ice Cream Parlors,127 Brevard Ct Charlotte NC 28202,https://www.dayandnightcereal.com,35.22576097,-80.84669878
Delizza,(252) 442-0270,Ice Cream Parlors,6610 Corporation Pkwy Battleboro NC 27809,https://www.delizza.us,36.05363522,-77.82433936
Dippin' Dots,(336) 760-9970,Ice Cream Parlors,3320 Silas Creek Pkwy # K20 Winston Salem NC 27103,https://www.dippindots.com,36.0738523,-80.29876528
Dippin' Dots,(919) 782-0993,Ice Cream Parlors,4325 Glenwood Ave # 2103 Raleigh NC 27612,https://www.dippindots.com,35.83889719,-78.67546591
Dippin' Dots,(919) 563-0125,Ice Cream Parlors,4000 Arrowhead Blvd # 798 Mebane NC 27302,https://www.dippindots.com,36.07568563,-79.26746099
Flavas Ice Cream Southport NC,(910) 457-5150,Ice Cream Parlors,318 W Bay St Southport NC 28461,https://www.flavasicecream.com,33.91665911,-78.02188534
Freeze Restaurant,(252) 482-2402,Ice Cream Parlors,320 W Queen St Edenton NC 27932,https://www.tastee-freez.com,36.06112366,-76.6141781
Fresh Creamery,(919) 917-7556,Ice Cream Parlors,6033 Glenwood Ave Raleigh NC 27612,https://www.freshlocalicecream.com,35.85483666,-78.70090376
Fresh Local Ice Cream,(919) 267-9716,Ice Cream Parlors,109 N Salem St Apex NC 27502,https://www.freshlocalicecream.com,35.73089847,-78.85157639
Fresh Local Ice Cream,(919) 234-1155,Ice Cream Parlors,138 E Chatham St Cary NC 27511,https://www.freshlocalicecream.com,35.78732173,-78.78018891
Gelarto,(910) 859-8012,Ice Cream Parlors,18 S Water St # 5 Wilmington NC 28401,www.gelarto.com,34.23464138,-77.94971316
Golden Cow Creamery,(980) 949-6040,Ice Cream Parlors,601 S Tryon St Charlotte NC 28202,https://www.goldencowcreamery.com,35.22337436,-80.84852581
Golden Cow Creamery,(980) 256-2602,Ice Cream Parlors,720 Governor Morrison St Charlotte NC 28211,https://www.goldencowcreamery.com,35.15665199,-80.82455331
Golden Cow Creamery,(980) 938-0925,Ice Cream Parlors,170 W Summit Ave Charlotte NC 28203,https://www.goldencowcreamery.com,35.21764839,-80.858198
Goodberry's Creamery Inc,(919) 878-8870,Ice Cream Parlors,305 Capcom Ave Raleigh NC 27615,https://www.goodberrys.com,35.9476655,35.9476655
Goodberry's Frozen Custard,(919) 554-2875,Ice Cream Parlors,11736 Retail Dr Wake Forest NC 27587,https://www.goodberrys.com,35.96841746,-78.54198993
Haagen-Dazs,(980) 949-8630,Ice Cream Parlors,11025 Carlina Pl Pkwy # D29 Pineville NC 28134,https://www.haagendazs.us,35.0827482,-80.87961814
Haagen-Dazs,(919) 948-6039,Ice Cream Parlors,4325 Glenwood Ave Raleigh NC 27612,https://www.haagendazs.us,35.83889719,-78.67546591
Haagen-Dazs,(704) 909-7337,Ice Cream Parlors,4400 Sharon Rd Charlotte NC 28211,https://www.haagendazs.us,35.15119318,-80.82878086
Haagen-Dazs,(704) 979-3059,Ice Cream Parlors,8111 Concord Mills Blvd Concord NC 28027,https://www.haagendazs.us,35.37079546,-80.71721201
Haagen-Dazs,(980) 262-2463,Ice Cream Parlors,7408 Waverly Walk Ave Charlotte NC 28277,https://www.haagendazs.us,35.05153377,-80.76728327
Handel's Homemade Ice Cream,(919) 650-2131,Ice Cream Parlors,115 Parkside Valley Dr Morrisville NC 27560,https://www.handelsicecream.com,35.8394021,-78.8569921
Hawaiian Island Snow Balls,(252) 261-1666,Ice Cream Parlors,1190 Duck Rd Duck NC 27949,https://www.hawaiianislandsnowballs.com,36.16320644,-75.75282249
Hershey's Ice Cream,(919) 284-0272,Ice Cream Parlors,104 Hershey Dr Kenly NC 27542,https://www.hersheyicecream.com,35.58398269,-78.14950323
Hershey's Ice Cream,(336) 293-7214,Ice Cream Parlors,2434 Lewisville Clemmons Rd Clemmons NC 27012,https://www.hersheyicecream.com,36.03197064,-80.38330502
Hershey's Ice Cream,(704) 637-5160,Ice Cream Parlors,710 Corporate Cir Salisbury NC 28147,https://www.hersheyicecream.com,35.64396785,-80.492236
Hershey's Ice Cream,(910) 671-9860,Ice Cream Parlors,1790 E Elizabethtown Rd Lumberton NC 28358,https://www.hersheyicecream.com,34.62947741,-78.99677515
Hershey's Ice Cream,(828) 000-1111,Ice Cream Parlors,1738 Nc-119 Mebane NC 27302,https://www.hersheyicecream.com,36.0677289,-79.3001241
Hop Black Mountain,(828) 357-5461,Ice Cream Parlors,114 Cherry St Black Mountain NC 28711,https://www.hopicecreamnc.com,35.61699597,-82.32092932
Hop Ice Creamery,(828) 254-2224,Ice Cream Parlors,167 Haywood Rd Asheville NC 28806,https://www.hopicecreamnc.com,35.58036259,-82.57394982
Hopper's Poppers-Roxboro,(336) 647-4700,Ice Cream Parlors,234 N Madison Blvd Roxboro NC 27573,https://www.hopperspoppers.com,36.39247913,-78.98823996
Hwy 42 Cafe,(919) 359-9897,Ice Cream Parlors,36 Flowers Xroads Way # 102 Clayton NC 27527,https://www.hwy42cafe.com,35.65552492,-78.34826006
I Scream 4 Ice Cream,(704) 634-7888,Ice Cream Parlors,8845 Erbach Ln Mt Pleasant NC 28124,https://www.iscream4icecream.com,35.38583903,-80.42710716
Ice Breakers Snoballs,(910) 506-4300,Ice Cream Parlors,1793 S Main St Laurinburg NC 28352,https://www.icebreakersnoballs.com,34.7516144,-79.480664
Ice Cream Parlor,(910) 692-7273,Ice Cream Parlors,176 NW Broad St Southern Pines NC 28387,https://www.mooreeats.com,35.17464127,-79.39118804
Ice Cream Shop Paleteria Deya,(910) 333-0538,Ice Cream Parlors,224 Brynn Marr Rd Jacksonville NC 28546,www.icecreamdeya.com,34.74890877,-77.38165985
Inizio Pizza Napoletana,(980) 296-3131,Ice Cream Parlors,16627 Brkdl Cmns Pkwy # E1 Huntersville NC 28078,https://www.iniziopizza.com,35.442279,-80.882324
Island Snowball Co,(252) 255-1598,Ice Cream Parlors,5000 S Croatan Hwy Nags Head NC 27959,https://www.islandsnowballco.com,35.9384976,-75.6171168
Jack the Dipper,(828) 595-9886,Ice Cream Parlors,5591 Hendersonville Rd Fletcher NC 28732,https://www.jackthedipper.com,35.4106646,-82.51240456
Jack the Dipper,(828) 586-9441,Ice Cream Parlors,280 Asheville Hwy # 4 Sylva NC 28779,https://www.jackthedipper.com,35.37844999,-83.2108918
Jack the Dipper Ice Cream,(828) 000-1111,Ice Cream Parlors,1024 Georgia Rd Franklin NC 28734,https://www.jackthedipper.com,35.07800765,-83.38600851
Jack the Dipper Ice Cream,(828) 246-9766,Ice Cream Parlors,76 Waynesville Plz Waynesville NC 28786,https://www.jackthedipper.com,35.50045865,-82.98546901
Jeni's Splendid Ice Creams,(980) 237-4599,Ice Cream Parlors,4203 Park Rd Charlotte NC 28209,https://www.jenis.com,35.17428149,-80.85106651
Jeni's Splendid Ice Creams,(980) 299-2946,Ice Cream Parlors,1920 Camden Rd Charlotte NC 28203,https://www.jenis.com,35.21137112,-80.85990053
Jeni's Splendid Ice Creams,(980) 272-6518,Ice Cream Parlors,416 E 36th St # 400 Charlotte NC 28205,https://www.jenis.com,35.24863993,-80.80554336
Jeni's Splendid Ice Creams,(704) 702-6016,Ice Cream Parlors,9828 Rea Rd Charlotte NC 28277,https://www.jenis.com,35.03443623,-80.80505617
Jeni's Splendid Ice Creams,(984) 259-1397,Ice Cream Parlors,908 W Main St Durham NC 27701,https://www.jenis.com,36.000152,-78.90933959
Jeremiah's Italian Ice,(704) 209-9700,Ice Cream Parlors,3501 Matthews Mint Hill Rd Matthews NC 28105,www.jeremiahsice.com,35.13752715,-80.683329
Jeremiah's Italian Ice,(828) 505-4400,Ice Cream Parlors,705 Merrimon Ave Asheville NC 28804,www.jeremiahsice.com,35.62281593,-82.55455387
Jeremiah's Italian Ice,(919) 608-8873,Ice Cream Parlors,3600 Rogers Branch Rd Wake Forest NC 27587,www.jeremiahsice.com,35.9444757,-78.50239385
Jeremiah's Italian Ice,(704) 781-5485,Ice Cream Parlors,146 James Ave Locust NC 28097,www.jeremiahsice.com,35.25386039,-80.45297799
Jeremiah's Italian Ice,(704) 677-7773,Ice Cream Parlors,112 Argus Ln # D Mooresville NC 28117,www.jeremiahsice.com,35.60177742,-80.89450683
Jeremiah's Italian Ice,(910) 399-2922,Ice Cream Parlors,3852 Carolina Beach Rd # 100 Wilmington NC 28412,www.jeremiahsice.com,34.17675625,-77.92597613
Jeremiah's Italian Ice,(704) 910-3414,Ice Cream Parlors,3842 Corning Pl # C Charlotte NC 28216,www.jeremiahsice.com,35.3262962,-80.94297
Jeremiah's Italian Ice,(704) 910-3414,Ice Cream Parlors,3842 Corning Pl # C Charlotte NC 28216,www.jeremiahsice.com,35.3262962,-80.94297
Jj's Sweets & Eats,(704) 825-5106,Ice Cream Parlors,7015 Wilkinson Blvd Belmont NC 28012,https://www.dairyqueen.com,35.24940829,-81.02210933
Kill Devil's Frozen Custard,(252) 441-5900,Ice Cream Parlors,1002 S Croatan Hwy Kill Devil Hills NC 27948,https://www.killdevilscustard.com,36.00654772,-75.65675218
Kim's Frozen Yogurt,(919) 537-8229,Ice Cream Parlors,1129 Weaver Dairy Rd Chapel Hill NC 27514,https://www.kimswhitetiger.com,35.96384434,-79.05392171
Koolie's Coffee & Creamery,(336) 644-7171,Ice Cream Parlors,5820 N Church St # A Greensboro NC 27455,https://www.kooliesfrozentreats.com,36.21533722,-79.78765557
Leezys Ice Cream,(252) 261-4001,Ice Cream Parlors,1187 Duck Rd Kitty Hawk NC 27949,www.weezysicecream.com,36.16246673,-75.75264238
Lindy's Homemade,(704) 391-7994,Ice Cream Parlors,920 Black Satchel Rd Charlotte NC 28216,https://www.lindysitalianice.com,35.28225418,-80.8802084
Lumpy's Ice Cream,(919) 878-7700,Ice Cream Parlors,306 Wait Ave Wake Forest NC 27587,https://www.lumpysicecream.com,35.97837718,-78.50818925
Mad Hatters Ice Cream Shop,(252) 574-6623,Ice Cream Parlors,1405 Hope Mills Rd Fayetteville NC 28304,https://www.themadhattersicecream.com,35.02547558,-78.96108542
Marble Slab Creamery,(828) 225-5579,Ice Cream Parlors,14 Biltmore Ave Asheville NC 28801,https://www.marbleslab.com,35.59397789,-82.55133606
Marble Slab Creamery,(704) 544-3345,Ice Cream Parlors,7800 Rea Rd # C Charlotte NC 28277,https://www.marbleslab.com,35.06115138,-80.81370781
Mixx Ice Cream,(919) 544-6249,Ice Cream Parlors,8531 Brier Creek Pkwy # 115 Raleigh NC 27617,https://www.mixxicecream.com,35.90663918,-78.78579734
Morelia Gourmet Paletas,(980) 785-4148,Ice Cream Parlors,16940 Brkdl Cmns Pkwy # A Huntersville NC 28078,https://www.paletasmorelia.com,35.445963,-80.878802
Ninety's Ice Cream-Sandwiches,(704) 547-1856,Ice Cream Parlors,9009 J M Keynes Dr Charlotte NC 28262,https://www.ninetysicecream.com,35.31139893,-80.74760099
Oki Scoop Shop & Donuts,(910) 250-1321,Ice Cream Parlors,4922 E Oak Island Dr Oak Island NC 28465,https://www.okiscoopshop.com,33.91284816,-78.11348116
Old Fashioned Ice Cream,(919) 351-0505,Ice Cream Parlors,124 N Raiford St Selma NC 27576,https://www.johnstoncountync.org,35.5359835,-78.28323208
Olde Towne Creamery,(252) 305-8060,Ice Cream Parlors,500 N Main Hwy Manteo NC 27954,www.oldetownecreamery.com,36.394134,-76.933566
Papa Robb's Paradise Ice,(704) 652-7272,Ice Cream Parlors,3700 Poplar Tent Rd Concord NC 28027,www.paparobbs.com,35.4131903,-80.63926548
Parlour,(919) 564-7999,Ice Cream Parlors,117 Market St Durham NC 27701,https://www.theparlour.co,35.99659672,-78.90222012
Peaches & Cream,(704) 694-2522,Ice Cream Parlors,2735 US Highway 74 E Wadesboro NC 28170,https://www.peachesandcreamnc.com,34.963695,-80.03088747
Pelican's Snoballs,(828) 237-1516,Ice Cream Parlors,430 N Main St Mooresville NC 28115,https://www.pelicanssnoballs.com,35.5862584,-80.80688058
Pelican's Snoballs,(919) 618-2300,Ice Cream Parlors,703 N Main St Wake Forest NC 27587,https://www.pelicanssnoballs.com,35.98917656,-78.5053669
Pelican's Snoballs,(704) 751-9008,Ice Cream Parlors,114 S Post Rd Shelby NC 28152,https://www.pelicanssnoballs.com,35.28318852,-81.49202141
Pelican's Snoballs,(336) 414-0912,Ice Cream Parlors,112 W Jackson Blvd Erwin NC 28339,https://www.pelicanssnoballs.com,35.33833621,-78.67694959
Pelican's Snoballs,(919) 641-9073,Ice Cream Parlors,1147 St Marks Church Rd # A Burlington NC 27215,https://www.pelicanssnoballs.com,36.0798208,-79.51379375
Pelican's Snoballs,(252) 236-5770,Ice Cream Parlors,4011 Nash St NW Wilson NC 27896,https://www.pelicanssnoballs.com,35.77316582,-77.94277651
Pelican's Snoballs,(919) 937-3971,Ice Cream Parlors,1605 Neal Hawkins Rd Gastonia NC 28056,https://www.pelicanssnoballs.com,35.21732271,-81.16923293
Pelican's Snoballs,(704) 615-4803,Ice Cream Parlors,5639 Statesville Rd Charlotte NC 28269,https://www.pelicanssnoballs.com,35.29667259,-80.83983261
Pelican's Snoballs,(704) 477-3402,Ice Cream Parlors,1918 N Main Ave Newton NC 28658,https://www.pelicanssnoballs.com,35.68138283,-81.21850166
Pelican's Snoballs,(910) 975-1839,Ice Cream Parlors,111 Montgomery Xing Biscoe NC 27209,https://www.pelicanssnoballs.com,35.35877479,-79.79726433
Pelican's Snoballs,(214) 923-6395,Ice Cream Parlors,122 S Front St Wilmington NC 28401,https://www.pelicanssnoballs.com,34.2334018,-77.94856065
Pelican's Snoballs,(704) 966-9344,Ice Cream Parlors,2224 Hartman St Lincolnton NC 28092,https://www.pelicanssnoballs.com,35.48048713,-81.20784136
Pelican's Snoballs,(919) 614-0293,Ice Cream Parlors,9180 Cleveland Rd Clayton NC 27520,https://www.pelicanssnoballs.com,35.56819108,-78.53185878
Pelican's Snoballs,(704) 000-1111,Ice Cream Parlors,4909 Highway 49 S Harrisburg NC 28075,https://www.pelicanssnoballs.com,35.32133242,-80.6574033
Pelican's Snoballs,(980) 722-3003,Ice Cream Parlors,3000 S Cannon Blvd Kannapolis NC 28083,https://www.pelicanssnoballs.com,35.45231331,-80.60962346
Pelican's Snoballs,(704) 675-2918,Ice Cream Parlors,1000 Shelby Rd Kings Mountain NC 28086,https://www.pelicanssnoballs.com,35.23959609,-81.36335544
Pelican's Snoballs,(704) 920-9696,Ice Cream Parlors,120 E Sunset Dr Monroe NC 28112,https://www.pelicanssnoballs.com,34.97256455,-80.54851845
Pelican's Snoballs,(704) 254-5556,Ice Cream Parlors,20832 Catawba Ave Cornelius NC 28031,https://www.pelicanssnoballs.com,35.4838955,-80.86796608
Pelican's Snoballs,(704) 966-9344,Ice Cream Parlors,6037 W Wilkinson Blvd Belmont NC 28012,https://www.pelicanssnoballs.com,35.2495229,-81.05734863
Pelican's Snoballs,(252) 000-1111,Ice Cream Parlors,1122 Greenville Blvd SW Greenville NC 27834,https://www.pelicanssnoballs.com,35.57257915,-77.41152443
Pelican's Snoballs,(704) 798-9989,Ice Cream Parlors,929 Main St North Wilkesboro NC 28659,https://www.pelicanssnoballs.com,36.15925229,-81.14678877
Pelican's Snoballs,(214) 923-6395,Ice Cream Parlors,122 S Front St Wilmington NC 28401,https://www.pelicanssnoballs.com,34.2334018,-77.94856065
Pelican's Snoballs,(704) 966-9344,Ice Cream Parlors,2224 Hartman St Lincolnton NC 28092,https://www.pelicanssnoballs.com,35.48048713,-81.20784136
Pelican's Snoballs,(919) 614-0293,Ice Cream Parlors,9180 Cleveland Rd Clayton NC 27520,https://www.pelicanssnoballs.com,35.56819108,-78.53185878
Pelican's Snoballs,(704) 000-1111,Ice Cream Parlors,4909 Highway 49 S Harrisburg NC 28075,https://www.pelicanssnoballs.com,35.32133242,-80.6574033
Pelican's Snoballs,(980) 722-3003,Ice Cream Parlors,3000 S Cannon Blvd Kannapolis NC 28083,https://www.pelicanssnoballs.com,35.45231331,-80.60962346
Pelican's Snoballs,(704) 675-2918,Ice Cream Parlors,1000 Shelby Rd Kings Mountain NC 28086,https://www.pelicanssnoballs.com,35.23959609,-81.36335544
Pelican's Snoballs,(704) 920-9696,Ice Cream Parlors,120 E Sunset Dr Monroe NC 28112,https://www.pelicanssnoballs.com,34.97256455,-80.54851845
Pelican's Snoballs,(704) 254-5556,Ice Cream Parlors,20832 Catawba Ave Cornelius NC 28031,https://www.pelicanssnoballs.com,35.4838955,-80.86796608
Pelican's Snoballs,(704) 966-9344,Ice Cream Parlors,6037 W Wilkinson Blvd Belmont NC 28012,https://www.pelicanssnoballs.com,35.2495229,-81.05734863
Pelican's Snoballs,(252) 955-9758,Ice Cream Parlors,1004 Big Oak Ct Knightdale NC 27545,https://www.pelicanssnoballs.com,35.79468674,-78.51136797
Pelican's Snoballs,(919) 937-3971,Ice Cream Parlors,7833 South Blvd Charlotte NC 28273,https://www.pelicanssnoballs.com,35.12861538,-80.87636277
Pelican's Snoballs,(828) 559-0833,Ice Cream Parlors,174 US 70 W Marion NC 28752,https://www.pelicanssnoballs.com,35.7045097,-82.03581124
Pelican's Snoballs,(828) 417-7776,Ice Cream Parlors,2601 Sweeten Creek Rd Asheville NC 28803,https://www.pelicanssnoballs.com,35.5121697,-82.51959462
Pelican's Snoballs,(252) 329-2017,Ice Cream Parlors,4601 E 10th St Greenville NC 27858,https://www.pelicanssnoballs.com,35.5811732,-77.3042854
Pelican's Snoballs,(980) 349-6145,Ice Cream Parlors,318 E South Main St Waxhaw NC 28173,https://www.pelicanssnoballs.com,34.92484653,-80.74161679
Pelican's Snoballs,(919) 271-6771,Ice Cream Parlors,441 W Williams St Apex NC 27502,https://www.pelicanssnoballs.com,35.7302106,-78.85944889
Pelican's Snoballs,(910) 333-6416,Ice Cream Parlors,2074 Highway 172 Sneads Ferry NC 28460,https://www.pelicanssnoballs.com,34.55069949,-77.42514438
Pelican's Snoballs,(980) 448-1759,Ice Cream Parlors,1200 N Davidson St Charlotte NC 28206,https://www.pelicanssnoballs.com,35.23227879,-80.82475328
Pelican's Snoballs,(910) 333-6416,Ice Cream Parlors,200 S Marine Blvd Jacksonville NC 28540,https://www.pelicanssnoballs.com,34.75188796,-77.43969553
Pelican's Snoballs,(828) 569-2179,Ice Cream Parlors,810 US Highway 321 NW Hickory NC 28601,https://www.pelicanssnoballs.com,35.74239069,-81.36582998
Pelican's Snoballs,(828) 572-1656,Ice Cream Parlors,520 Realty St SW Lenoir NC 28645,https://www.pelicanssnoballs.com,35.9040968,-81.54369023
Pelican's Snoballs,(704) 425-2245,Ice Cream Parlors,5425 University Pkwy Winston Salem NC 27105,https://www.pelicanssnoballs.com,36.17019937,-80.2771502
Pelican's Snoballs,(336) 669-8107,Ice Cream Parlors,601 Sheffield Dr Siler City NC 27344,https://www.pelicanssnoballs.com,35.72788352,-79.45680615
Pelican's Snoballs,(336) 254-3368,Ice Cream Parlors,1102 S Horner Blvd Sanford NC 27330,https://www.pelicanssnoballs.com,35.47002953,-79.16688588
Pelican's Snoballs,(704) 798-9989,Ice Cream Parlors,929 Main St North Wilkesboro NC 28659,https://www.pelicanssnoballs.com,36.15925229,-81.14678877
Percantile & Creamery,(980) 299-6969,Ice Cream Parlors,8635 Concord Mills Blvd Concord NC 28027,https://www.thepercantileandcreamery.com,35.37433429,-80.7269927
Piggy's & Harry's,(828) 692-1995,Ice Cream Parlors,102 Duncan Hill Rd Hendersonville NC 28792,www.harrysandpiggys.com,35.33082239,-82.44944557
Popbar,(980) 237-9750,Ice Cream Parlors,3123 N Davidson St # 102B Charlotte NC 28205,https://www.pop-bar.com,35.2468457,-80.80614549
Popbar,(704) 688-1618,Ice Cream Parlors,8111 Concord Mls Blvd # 661 Concord NC 28027,https://www.pop-bar.com,35.37079546,-80.71721201
Popbar,(980) 237-9750,Ice Cream Parlors,270 Camp Rd # 105 Charlotte NC 28206,https://www.pop-bar.com,35.2462831,-80.8332824
Rita's Italian Ice-Frozen,(704) 910-6100,Ice Cream Parlors,1806 Rozzelles Ferry Rd Charlotte NC 28208,https://www.ritasice.com,35.24184199,-80.85879549
Rita's Italian Ice-Frozen,(704) 000-1111,Ice Cream Parlors,14523 Carowinds Blvd Charlotte NC 28273,https://www.ritasice.com,35.10066165,-80.94953477
Rita's Italian Ice-Frozen,(828) 505-7990,Ice Cream Parlors,5 Regent Park Blvd # 108 Asheville NC 28806,https://www.ritasice.com,35.58899235,-82.58195779
Rita's Italian Ice-Frozen,(704) 971-5319,Ice Cream Parlors,2015 E Arbors Dr # 260 Charlotte NC 28262,https://www.ritasice.com,35.33692938,-80.75590429
Rita's Italian Ice-Frozen,(910) 219-1300,Ice Cream Parlors,345 Western Blvd # D Jacksonville NC 28546,https://www.ritasice.com,34.76615869,-77.38376723
Rita's Italian Ice-Frozen,(704) 542-2258,Ice Cream Parlors,16631 Lancaster Hwy # 106 Charlotte NC 28277,https://www.ritasice.com,35.02304905,-80.8489724
Scoop Local,(919) 213-1769,Ice Cream Parlors,900 W Main St Durham NC 27701,www.scooplocaldurham.weebly.com,36.00010919,-78.90927018
Scoops,(910) 663-9146,Ice Cream Parlors,795 US Highway 117 S Burgaw NC 28425,https://www.scoopsnc.com,34.541652,-77.909202
Scrollicious,(910) 420-8036,Ice Cream Parlors,211 Central Park Ave # G Pinehurst NC 28374,https://www.scrollicious.com,35.20495084,-79.4822905
Simons Says Dip This,(984) 888-5070,Ice Cream Parlors,117 W Parrish St Durham NC 27701,https://www.simonssaysdipthis.com,35.99572563,-78.90061607
Simply Natural Creamery,(252) 222-4711,Ice Cream Parlors,4950 Arendell St # H Morehead City NC 28557,https://www.simplynaturalcreamery.com,34.73447916,-76.78990549
Smitty's Homemade Ice Cream,(336) 350-9946,Ice Cream Parlors,300 N Main St Graham NC 27253,https://www.smittyshomemadeicecream.com,36.0722758,-79.40037125
Smitty's Homemade Ice Cream,(336) 270-3800,Ice Cream Parlors,130 N Williamson Ave Elon NC 27244,https://www.smittyshomemadeicecream.com,36.10103924,-79.50670936
Smitty's Homemade Ice Cream,(336) 524-6998,Ice Cream Parlors,107 E Front St Burlington NC 27215,https://www.smittyshomemadeicecream.com,36.09367287,-79.43667326
Southern Snow Co,(919) 906-1372,Ice Cream Parlors,935 College St Oxford NC 27565,https://www.southernsnowcompany.com,36.32315527,-78.59507761
Spanky's Homemade Ice Cream-Dl,(704) 638-0780,Ice Cream Parlors,101 N Main St Salisbury NC 28144,www.spankys-ice-cream.poi.place,35.66738759,-80.46979262
Spot,(252) 715-4033,Ice Cream Parlors,2805 S Croatan Hwy Nags Head NC 27959,https://www.thespotobx.com,35.98022401,-75.64205115
Spot,(252) 515-5224,Ice Cream Parlors,3700 N Croatan Hwy Kitty Hawk NC 27949,https://www.thespotobx.com,36.05871592,-75.68862206
Stellar Scoops,(910) 898-2025,Ice Cream Parlors,305 SW Branson Cir Robbins NC 27325,https://www.stellarscoops.com,35.43346392,-79.58825648
Sugar Grinders Creamery-Bakery,(919) 494-2995,Ice Cream Parlors,2 S Main St Franklinton NC 27525,https://www.sugargrinders.net,36.10432516,-78.45631302
Sugar Koi,(919) 757-2399,Ice Cream Parlors,116 Kilmayne Dr Cary NC 27511,https://www.sugarkoi.com,35.76949667,-78.78332019
Sunni Sky's Homemade Ice Cream,(919) 427-7118,Ice Cream Parlors,8617 Nc 55 S Angier NC 27501,https://www.sunniskys.com,35.53114174,-78.74467834
Sunset Slush Classic Italian,(336) 848-2513,Ice Cream Parlors,144 Westchester Dr # 104 High Point NC 27262,https://www.sunsetslush.com,35.98280622,-80.02502073
Sunset Slush-Classic Italian,(910) 575-2020,Ice Cream Parlors,6848 Beach Dr SW Ocean Isle Beach NC 28469,https://www.sunsetslush.com,33.89948003,-78.46644004
Sunshine Sammies,(828) 505-2852,Ice Cream Parlors,99 S Lexington Ave # 303 Asheville NC 28801,https://www.sunshinesammies.com,35.59161184,-82.55188421
Swirl,(704) 258-1209,Ice Cream Parlors,1640 Oakhurst Commons Dr # 103 Charlotte NC 28205,https://www.swirlclt.com,35.19381511,-80.78041319
TCBY,(704) 847-0444,Ice Cream Parlors,3116 Weddington Rd # 700 Matthews NC 28105,https://www.tcby.com,35.0827743,-80.73122556
TCBY,(704) 853-2493,Ice Cream Parlors,3284 Union Rd Gastonia NC 28056,https://www.tcby.com,35.20700368,-81.16420318
TCBY,(704) 583-6199,Ice Cream Parlors,14318 Rivergate Pkwy Charlotte NC 28273,https://www.tcby.com,35.10163332,-80.98225885
TCBY,(704) 684-5527,Ice Cream Parlors,6312 Weddington Monroe Rd Wesley Chapel NC 28104,https://www.tcby.com,35.00113046,-80.69798062
TCBY,(910) 229-2446,Ice Cream Parlors,400 Westwood Shopping Ctr Fayetteville NC 28314,https://www.tcby.com,35.06698072,-78.95302585
TCBY,(910) 794-5663,Ice Cream Parlors,3804 Oleander Dr # 200 Wilmington NC 28403,https://www.tcby.com,34.21460331,-77.90144134
TCBY,(704) 900-5483,Ice Cream Parlors,11025 Carolina Place Pkwy Pineville NC 28134,https://www.tcby.com,35.0827482,-80.87961814
TCBY,(704) 341-2002,Ice Cream Parlors,9864 Rea Rd # C Charlotte NC 28277,https://www.tcby.com,35.03387724,-80.80521573
TCBY,(704) 522-7223,Ice Cream Parlors,2823 Selwyn Ave # J Charlotte NC 28209,https://www.tcby.com,35.17452839,-80.83962641
TCBY,(980) 236-8844,Ice Cream Parlors,1247 East Blvd # 240 Charlotte NC 28203,https://www.tcby.com,35.20237159,-80.84513369
TCBY,(704) 341-2000,Ice Cream Parlors,7731 Colony Rd # F1 Charlotte NC 28226,https://www.tcby.com,35.10737241,-80.80803781
TCBY,(828) 754-9685,Ice Cream Parlors,208 Morganton Blvd SW Lenoir NC 28645,https://www.tcby.com,35.91331488,-81.528008
TCBY,(704) 947-9700,Ice Cream Parlors,9334 Rose Commons Dr Huntersville NC 28078,https://www.tcby.com,35.4081727,-80.8642068
TCBY,(704) 359-4995,Ice Cream Parlors,5501 Jsh Brmnghm Pkwy # 16 Charlotte NC 28208,https://www.tcby.com,35.171894,-80.889941
TCBY,(704) 987-2262,Ice Cream Parlors,16916 Brkdl Cmns Pkwy # A Huntersville NC 28078,https://www.tcby.com,35.4387753,-80.8869337
Tony's Ice Cream Co,(704) 867-7085,Ice Cream Parlors,604 E Franklin Blvd Gastonia NC 28054,https://www.tonysicecream.com,35.2622186,-81.1732327
Two Chicks Sandwiches & Scoops,(704) 560-9711,Ice Cream Parlors,102 S Main St Belmont NC 28012,https://www.sandwichesandscoops.com,35.24081981,-81.03841972
Two Roosters Ice Cream,(919) 229-0491,Ice Cream Parlors,215 E Franklin St Raleigh NC 27604,https://www.tworoosters.com,35.79016515,-78.63558741
Udderly Delicious Ice Cream,(828) 465-1070,Ice Cream Parlors,1006 Conover Blvd W Conover NC 28613,http://www.udderlydelicious.com,35.7026849,-81.19866064
Ultimate Ice Cream Co,(828) 505-8048,Ice Cream Parlors,171 New Haw Creek Rd Asheville NC 28805,https://www.ultimateicecreamavl.com,35.58734077,-82.51740031
Ultimate Ice Cream Co,(828) 258-1515,Ice Cream Parlors,197 Charlotte St Asheville NC 28801,https://www.ultimateicecreamavl.com,35.60639839,-82.54626327
Ultimate Ice Cream Co,(828) 296-1234,Ice Cream Parlors,1070 Tunnel Rd Asheville NC 28805,https://www.ultimateicecreamavl.com,35.58743478,-82.49150364
Urban Sweets,(704) 412-1291,Ice Cream Parlors,222 West Blvd # S114 Charlotte NC 28203,https://www.urbansweetsco.com,35.21344531,-80.86053245
Whit's Frozen Custard,(704) 992-9750,Ice Cream Parlors,10410 Arahova Dr Huntersville NC 28078,https://www.whitscustard.com,35.41405516,-80.8560255
Whit's Frozen Custard,(919) 245-8123,Ice Cream Parlors,240 S Nash St Hillsborough NC 27278,https://www.whitscustard.com,36.07237697,-79.11106575
Whit's Frozen Custard,(828) 505-1771,Ice Cream Parlors,565 Merrimon Ave Asheville NC 28804,https://www.whitsasheville.com,35.61824826,-82.55411035
Whit's Frozen Custard,(828) 595-2118,Ice Cream Parlors,614 Spartanburg Hwy Hendersonville NC 28792,https://www.whitscustard.com,35.3072031,-82.45654649
Whit's Frozen Custard,(336) 497-5485,Ice Cream Parlors,508 E Mountain St # E Kernersville NC 27284,https://www.whitscustard.com,36.11657233,-80.06651944
Whit's Frozen Custard,(336) 438-1860,Ice Cream Parlors,21 SE Court Sq Graham NC 27253,https://www.whitscustard.com,36.0692771,-79.40004349
Yo Bre'z Frozen Dessert Bar,(910) 939-2022,Ice Cream Parlors,715 Gum Branch Rd # 6 Jacksonville NC 28540,https://www.yobrezfrozendessert.com,34.76945797,-77.40712413
Yoforia,(704) 688-1003,Ice Cream Parlors,210 E Trade St Charlotte NC 28202,https://www.yoforia.com,35.22607972,-80.84187745